[
    {
        "Altitude(m)": 556367.3897387836,
        "Argument of Periapsis(deg)": 0.0,
        "Eccentricity": 0.0,
        "Inclination(deg)": 53.0,
        "Latitude(deg)": 37.24569179759559,
        "Longitude(deg)": -95.23353475739566,
        "Mean Anomaly(deg)": -310.9091,
        "RAAN(deg)": 330.0,
        "Satellite Name": "Starlink Shell 1 1455",
        "Satellite Number": 1455,
        "Semi-Major Axis(m)": 6931778.249405717,
        "Time(s)": 0
    },
    {
        "Altitude(m)": 556450.7751526393,
        "Argument of Periapsis(deg)": 0.00034857847951123687,
        "Eccentricity": 0.0,
        "Inclination(deg)": 53.0,
        "Latitude(deg)": 37.656916313748795,
        "Longitude(deg)": -94.67860933532944,
        "Mean Anomaly(deg)": -310.28226879644325,
        "RAAN(deg)": 329.9994812299225,
        "Satellite Name": "Starlink Shell 1 1455",
        "Satellite Number": 1455,
        "Semi-Major Axis(m)": 6931778.249405717,
        "Time(s)": 10
    },
    {
        "Altitude(m)": 556534.2470130877,
        "Argument of Periapsis(deg)": 0.0006971569590224737,
        "Eccentricity": 0.0,
        "Inclination(deg)": 53.0,
        "Latitude(deg)": 38.065065442231536,
        "Longitude(deg)": -94.1171025743935,
        "Mean Anomaly(deg)": -309.6554375928866,
        "RAAN(deg)": 329.998962459845,
        "Satellite Name": "Starlink Shell 1 1455",
        "Satellite Number": 1455,
        "Semi-Major Axis(m)": 6931778.249405717,
        "Time(s)": 20
    },
    {
        "Altitude(m)": 556617.7501610469,
        "Argument of Periapsis(deg)": 0.0010457354385337105,
        "Eccentricity": 0.0,
        "Inclination(deg)": 53.0,
        "Latitude(deg)": 38.4700604882195,
        "Longitude(deg)": -93.54889420754954,
        "Mean Anomaly(deg)": -309.02860638932987,
        "RAAN(deg)": 329.99844368976756,
        "Satellite Name": "Starlink Shell 1 1455",
        "Satellite Number": 1455,
        "Semi-Major Axis(m)": 6931778.249405717,
        "Time(s)": 30
    },
    {
        "Altitude(m)": 556701.2296317852,
        "Argument of Periapsis(deg)": 0.0013943139180449475,
        "Eccentricity": 0.0,
        "Inclination(deg)": 53.0,
        "Latitude(deg)": 38.87182100953509,
        "Longitude(deg)": -92.97386360656849,
        "Mean Anomaly(deg)": -308.4017751857732,
        "RAAN(deg)": 329.9979249196901,
        "Satellite Name": "Starlink Shell 1 1455",
        "Satellite Number": 1455,
        "Semi-Major Axis(m)": 6931778.249405717,
        "Time(s)": 40
    },
    {
        "Altitude(m)": 556784.6306829805,
        "Argument of Periapsis(deg)": 0.0017428923975561844,
        "Eccentricity": 0.0,
        "Inclination(deg)": 53.0,
        "Latitude(deg)": 39.27026479362117,
        "Longitude(deg)": -92.39189096535358,
        "Mean Anomaly(deg)": -307.7749439822164,
        "RAAN(deg)": 329.99740614961263,
        "Satellite Name": "Starlink Shell 1 1455",
        "Satellite Number": 1455,
        "Semi-Major Axis(m)": 6931778.249405717,
        "Time(s)": 50
    },
    {
        "Altitude(m)": 556867.8988226248,
        "Argument of Periapsis(deg)": 0.002091470877067421,
        "Eccentricity": 0.0,
        "Inclination(deg)": 53.0,
        "Latitude(deg)": 39.665307836491664,
        "Longitude(deg)": -91.80285698431778,
        "Mean Anomaly(deg)": -307.1481127786597,
        "RAAN(deg)": 329.9968873795351,
        "Satellite Name": "Starlink Shell 1 1455",
        "Satellite Number": 1455,
        "Semi-Major Axis(m)": 6931778.249405717,
        "Time(s)": 60
    },
    {
        "Altitude(m)": 556950.9798367772,
        "Argument of Periapsis(deg)": 0.0024400493565786582,
        "Eccentricity": 0.0,
        "Inclination(deg)": 53.0,
        "Latitude(deg)": 40.0568643239038,
        "Longitude(deg)": -91.20664256929206,
        "Mean Anomaly(deg)": -306.521281575103,
        "RAAN(deg)": 329.99636860945765,
        "Satellite Name": "Starlink Shell 1 1455",
        "Satellite Number": 1455,
        "Semi-Major Axis(m)": 6931778.249405717,
        "Time(s)": 70
    },
    {
        "Altitude(m)": 557033.8198171253,
        "Argument of Periapsis(deg)": 0.002788627836089895,
        "Eccentricity": 0.0,
        "Inclination(deg)": 53.0,
        "Latitude(deg)": 40.444846615009254,
        "Longitude(deg)": -90.60313005843452,
        "Mean Anomaly(deg)": -305.89445037154627,
        "RAAN(deg)": 329.99584983938024,
        "Satellite Name": "Starlink Shell 1 1455",
        "Satellite Number": 1455,
        "Semi-Major Axis(m)": 6931778.249405717,
        "Time(s)": 80
    },
    {
        "Altitude(m)": 557116.3651883387,
        "Argument of Periapsis(deg)": 0.0031372063156011316,
        "Eccentricity": 0.0,
        "Inclination(deg)": 53.0,
        "Latitude(deg)": 40.82916522875824,
        "Longitude(deg)": -89.99220295197576,
        "Mean Anomaly(deg)": -305.2676191679896,
        "RAAN(deg)": 329.9953310693027,
        "Satellite Name": "Starlink Shell 1 1455",
        "Satellite Number": 1455,
        "Semi-Major Axis(m)": 6931778.249405717,
        "Time(s)": 90
    },
    {
        "Altitude(m)": 557198.5627352487,
        "Argument of Periapsis(deg)": 0.0034857847951123688,
        "Eccentricity": 0.0,
        "Inclination(deg)": 53.0,
        "Latitude(deg)": 41.209728833347064,
        "Longitude(deg)": -89.37374565822489,
        "Mean Anomaly(deg)": -304.64078796443283,
        "RAAN(deg)": 329.99481229922526,
        "Satellite Name": "Starlink Shell 1 1455",
        "Satellite Number": 1455,
        "Semi-Major Axis(m)": 6931778.249405717,
        "Time(s)": 100
    },
    {
        "Altitude(m)": 557280.3596297887,
        "Argument of Periapsis(deg)": 0.003834363274623606,
        "Eccentricity": 0.0,
        "Inclination(deg)": 53.0,
        "Latitude(deg)": 41.586444239015734,
        "Longitude(deg)": -88.7476447692301,
        "Mean Anomaly(deg)": -304.0139567608761,
        "RAAN(deg)": 329.9942935291478,
        "Satellite Name": "Starlink Shell 1 1455",
        "Satellite Number": 1455,
        "Semi-Major Axis(m)": 6931778.249405717,
        "Time(s)": 110
    },
    {
        "Altitude(m)": 557361.7034577065,
        "Argument of Periapsis(deg)": 0.004182941754134842,
        "Eccentricity": 0.0,
        "Inclination(deg)": 53.0,
        "Latitude(deg)": 41.95921639451717,
        "Longitude(deg)": -88.11378884083022,
        "Mean Anomaly(deg)": -303.38712555731945,
        "RAAN(deg)": 329.99377475907033,
        "Satellite Name": "Starlink Shell 1 1455",
        "Satellite Number": 1455,
        "Semi-Major Axis(m)": 6931778.249405717,
        "Time(s)": 120
    },
    {
        "Altitude(m)": 557442.5422450338,
        "Argument of Periapsis(deg)": 0.004531520233646079,
        "Eccentricity": 0.0,
        "Inclination(deg)": 53.0,
        "Latitude(deg)": 42.32794838759669,
        "Longitude(deg)": -87.47206819039837,
        "Mean Anomaly(deg)": -302.76029435376273,
        "RAAN(deg)": 329.9932559889928,
        "Satellite Name": "Starlink Shell 1 1455",
        "Satellite Number": 1455,
        "Semi-Major Axis(m)": 6931778.249405717,
        "Time(s)": 130
    },
    {
        "Altitude(m)": 557522.8244843053,
        "Argument of Periapsis(deg)": 0.0048800987131573164,
        "Eccentricity": 0.0,
        "Inclination(deg)": 53.0,
        "Latitude(deg)": 42.69254144983493,
        "Longitude(deg)": -86.82237622551703,
        "Mean Anomaly(deg)": -302.133463150206,
        "RAAN(deg)": 329.99273721891535,
        "Satellite Name": "Starlink Shell 1 1455",
        "Satellite Number": 1455,
        "Semi-Major Axis(m)": 6931778.249405717,
        "Time(s)": 140
    },
    {
        "Altitude(m)": 557602.4991605005,
        "Argument of Periapsis(deg)": 0.005228677192668553,
        "Eccentricity": 0.0,
        "Inclination(deg)": 53.0,
        "Latitude(deg)": 43.05289496622214,
        "Longitude(deg)": -86.1646092781394,
        "Mean Anomaly(deg)": -301.50663194664924,
        "RAAN(deg)": 329.9922184488379,
        "Satellite Name": "Starlink Shell 1 1455",
        "Satellite Number": 1455,
        "Semi-Major Axis(m)": 6931778.249405717,
        "Time(s)": 150
    },
    {
        "Altitude(m)": 557681.5157767183,
        "Argument of Periapsis(deg)": 0.00557725567217979,
        "Eccentricity": 0.0,
        "Inclination(deg)": 53.0,
        "Latitude(deg)": 43.40890648984462,
        "Longitude(deg)": -85.49866645731959,
        "Mean Anomaly(deg)": -300.8798007430926,
        "RAAN(deg)": 329.9916996787604,
        "Satellite Name": "Starlink Shell 1 1455",
        "Satellite Number": 1455,
        "Semi-Major Axis(m)": 6931778.249405717,
        "Time(s)": 160
    },
    {
        "Altitude(m)": 557759.8243795425,
        "Argument of Periapsis(deg)": 0.0059258341516910265,
        "Eccentricity": 0.0,
        "Inclination(deg)": 53.0,
        "Latitude(deg)": 43.76047176207923,
        "Longitude(deg)": -84.82445103349718,
        "Mean Anomaly(deg)": -300.25296953953585,
        "RAAN(deg)": 329.99118090868296,
        "Satellite Name": "Starlink Shell 1 1455",
        "Satellite Number": 1455,
        "Semi-Major Axis(m)": 6931778.249405717,
        "Time(s)": 170
    },
    {
        "Altitude(m)": 557837.3755841221,
        "Argument of Periapsis(deg)": 0.006274412631202263,
        "Eccentricity": 0.0,
        "Inclination(deg)": 53.0,
        "Latitude(deg)": 44.10748473869849,
        "Longitude(deg)": -84.14187032860002,
        "Mean Anomaly(deg)": -299.62613833597914,
        "RAAN(deg)": 329.99066213860544,
        "Satellite Name": "Starlink Shell 1 1455",
        "Satellite Number": 1455,
        "Semi-Major Axis(m)": 6931778.249405717,
        "Time(s)": 180
    }
]